satname,norad_id,inclination_deg,eccentricity,mean_motion_rev_per_day,perigee_km,apogee_km,l1,l2
STARLINK-1008,44714,53.0552,0.0001335,15.06407222,546.2648925593103,548.1139547144221,1 44714U 19074B   25357.87042095  .00001343  00000+0  10904-3 0  9995,2 44714  53.0552 166.9839 0001335  97.8319 262.2822 15.06407222337324
STARLINK-1012,44718,53.0551,0.0001445,15.06382268,546.2651837778012,548.2666252172003,1 44718U 19074F   25358.77718067  .00000917  00000+0  80474-4 0  9994,2 44718  53.0551 162.9112 0001445  99.8928 260.2224 15.06382268337457
STARLINK-1017,44723,53.0466,0.0006114,15.18328976,506.67859240942744,515.102495290047,1 44723U 19074L   25358.70747179  .00048770  00000+0  23457-2 0  9994,2 44723  53.0466 155.8505 0006114 123.5414 236.6165 15.18328976337559
STARLINK-1019,44724,53.0504,0.0003083,15.58820182,388.98356993765356,393.15746329239846,1 44724U 19074M   25358.91670139  .00157347  00000+0  19664-2 0  9995,2 44724  53.0504 146.3539 0003083 258.8083 346.5914 15.58820182  5927
STARLINK-1020,44725,53.0533,0.0001337,15.06396634,546.2959537812048,548.1477947441817,1 44725U 19074N   25358.77901782  .00000937  00000+0  81804-4 0  9990,2 44725  53.0533 182.9054 0001337  85.7497 274.3644 15.06396634337170
STARLINK-1031,44736,53.0462,0.0001926,15.62666173,378.6575547906941,381.26077343311135,1 44736U 19074Z   25358.91670139  .00143745  00000+0  15533-2 0  9996,2 44736  53.0462 132.8867 0001926 110.0146 246.1842 15.62666173  5984
STARLINK-1036,44741,53.0547,0.0001424,15.06398455,546.2301228358601,548.2024634537484,1 44741U 19074AE  25358.80850854  .00000205  00000+0  32690-4 0  9992,2 44741  53.0547 182.7686 0001424  88.2153 271.8999 15.06398455337185
STARLINK-1039,44744,53.0496,0.0003725,15.15621287,516.5238120271406,521.6622483996498,1 44744U 19074AH  25358.84656237  .00007180  00000+0  38904-3 0  9990,2 44744  53.0496 197.4560 0003725  79.3617 280.7796 15.15621287336980
STARLINK-1042,44747,53.0456,0.0001463,15.45832841,427.9361582600186,429.9279066589161,1 44747U 19074AL  25358.55733032  .00023083  00000+0  47562-3 0  9990,2 44747  53.0456  94.1667 0001463 289.8061  70.2787 15.45832841338435
STARLINK-1043,44748,53.053,0.0003299,15.45769988,426.87084106169823,431.3622669566348,1 44748U 19074AM  25358.74376469  .00086700  00000+0  17516-2 0  9999,2 44748  53.0530 194.2190 0003299 138.0310 222.0949 15.45769988337025
STARLINK-1046,44751,53.0548,0.0002957,15.06519515,544.7975686306727,548.8930031545488,1 44751U 19074AQ  25358.86180468  .00014197  00000+0  96691-3 0  9991,2 44751  53.0548 202.5313 0002957  65.0761 295.0535 15.06519515336911
STARLINK-1047,44752,53.0703,0.0002301,15.30637122,472.3335564753352,475.48686860254656,1 44752U 19074AR  25358.65109853  .00012413  00000+0  42478-3 0  9991,2 44752  53.0703 136.0450 0002301  20.9955 339.1139 15.30637122337841
STARLINK-1048,44753,53.0567,0.0001201,15.06394761,546.3958784750266,548.0593510554918,1 44753U 19074AS  25358.75505551 -.00000396  00000+0 -77054-5 0  9997,2 44753  53.0567 163.0097 0001201  95.6992 264.4134 15.06394761337459
STARLINK-1053,44758,53.0375,0.0001213,15.68950827,361.08252240052934,362.7176553982954,1 44758U 19074AX  25358.51509946  .00084830  00000+0  72001-3 0  9996,2 44758  53.0375  99.8687 0001213 277.9278  82.1600 15.68950827338337
STARLINK-1060,44765,53.0455,0.000424,15.80250463,326.8876259586468,332.57589866908893,1 44765U 19074BE  25358.91670139  .00187891  00000+0  96150-3 0  9993,2 44765  53.0455 141.6252 0004240 207.3209 265.4185 15.80250463  5970
STARLINK-1063,44768,53.0537,0.0001679,15.06401702,546.0435764112744,548.3691067053705,1 44768U 19074BH  25358.85089951  .00000973  00000+0  84208-4 0  9992,2 44768  53.0537 202.5837 0001679  93.6980 266.4201 15.06401702336929
STARLINK-1067,44771,53.0567,0.0001678,15.24300612,491.7334066076055,494.0393220486749,1 44771U 19074BL  25358.91670139  .01064779  00000+0  39870-1 0  9994,2 44771  53.0567 201.6510 0001678  89.0899 298.3003 15.24300612  5847
STARLINK-1068,44772,53.0549,0.0001721,15.39701188,445.81761214641847,448.16682162286907,1 44772U 19074BM  25358.91670139  .01315413  00000+0  29956-1 0  9993,2 44772  53.0549 180.0706 0001721  87.5950  80.1417 15.39701188  5783
STARLINK-1112,44925,53.0459,0.0009894,15.68524887,356.4504254082649,369.7900252057025,1 44925U 20001M   25358.91670139  .00131689  00000+0  11257-2 0  9991,2 44925  53.0459 259.1167 0009894  85.2363 349.8095 15.68524887  6008
STARLINK-1114,44927,53.0555,0.0001649,15.06398108,546.0753657184368,548.3593475852595,1 44927U 20001P   25358.60393031  .00000463  00000+0  49957-4 0  9997,2 44927  53.0555 323.6924 0001649  86.1842 273.9335 15.06398108328533
STARLINK-1123,44930,53.0555,0.0001363,15.06393585,546.2872913708634,548.1751467473796,1 44930U 20001S   25358.22059907  .00000775  00000+0  70952-4 0  9995,2 44930  53.0555 325.4126 0001363  92.7424 267.3721 15.06393585328476
STARLINK-1144,44933,53.037,0.0002397,15.7860606,332.78026503309957,335.99825012098245,1 44933U 20001V   25358.91670139  .00089208  00000+0  49966-3 0  9998,2 44933  53.0370 232.7237 0002397 142.2766 161.2247 15.78606060  5960
STARLINK-1094,44941,53.0561,0.0001493,15.06419626,546.1174621687169,548.1853532872638,1 44941U 20001AD  25358.23347947  .00004370  00000+0  31192-3 0  9999,2 44941  53.0561 305.3571 0001493  91.5198 268.5962 15.06419626328751
STARLINK-1122,44949,53.0568,0.0001597,15.06414403,546.0614440543022,548.273386284508,1 44949U 20001AM  25358.12293044  .00006998  00000+0  48802-3 0  9997,2 44949  53.0568 305.8495 0001597  96.1539 263.9632 15.06414403328730
STARLINK-1080,44961,53.0553,0.0002074,15.1923264,506.7302523824974,509.58668774348007,1 44961U 20001AZ  25358.91670139  .01288443  00000+0  55828-1 0  9994,2 44961  53.0553 281.9147 0002074  95.8691  94.1109 15.19232640  5776
STARLINK-1090,44968,53.0568,0.0001743,15.06398874,546.0079201130911,548.4220978234171,1 44968U 20001BG  25358.52284699  .00007699  00000+0  53521-3 0  9991,2 44968  53.0568 284.0557 0001743  88.8401 271.2788 15.06398874329083
STARLINK-1132,45044,53.054,0.000151,15.06402139,546.1592755767715,548.2507288614424,1 45044U 20006A   25358.08421851 -.00001489  00000+0 -81085-4 0  9996,2 45044  53.0540 246.0286 0001510  90.7540 269.3622 15.06402139325344
STARLINK-1131,45047,53.0568,0.0001498,15.06395805,546.1869958989519,548.2618341788966,1 45047U 20006D   25358.12667728  .00000074  00000+0  23850-4 0  9992,2 45047  53.0568 266.3751 0001498  88.2542 271.8619 15.06395805325062
STARLINK-1134,45048,53.0353,0.0005244,15.33553207,461.6325884428843,468.80990257077246,1 45048U 20006E   25358.80515853  .00057759  00000+0  17531-2 0  9998,2 45048  53.0353 231.7418 0005244  41.9473 318.1929 15.33553207325615
STARLINK-1156,45054,53.0532,0.0001457,15.06398466,546.2072354614311,548.2252834012297,1 45054U 20006L   25358.76059259  .00001848  00000+0  14295-3 0  9996,2 45054  53.0532 262.9894 0001457  86.1299 273.9856 15.06398466325165
STARLINK-1159,45057,53.0514,0.0007404,15.58301212,387.5603246207884,397.5863925197591,1 45057U 20006P   25358.82109977  .00100717  00000+0  12938-2 0  9995,2 45057  53.0514 244.8067 0007404 104.0496 256.1338 15.58301212325434
STARLINK-1166,45060,53.0549,0.0001658,15.06360208,546.1852743600639,548.4817603836245,1 45060U 20006S   25358.05659322  .00011490  00000+0  78986-3 0  9993,2 45060  53.0549 266.1479 0001658  88.4439 271.6740 15.06360208325068
STARLINK-1169,45061,53.054,0.0002224,15.0642427,545.5969939059751,548.6773558589621,1 45061U 20006T   25358.13027379  .00009392  00000+0  64814-3 0  9997,2 45061  53.0540 265.8214 0002224  81.5593 278.5648 15.06424270325072
STARLINK-1171,45062,53.0516,0.0014018,15.41455485,432.2526742245873,451.3730857080618,1 45062U 20006U   25358.12720367  .00074294  00000+0  17349-2 0  9997,2 45062  53.0516 251.8937 0014018  95.9343 264.3259 15.41455485325273
STARLINK-1133,45064,53.0548,0.0001463,15.06387735,546.2359646582963,548.2623326453922,1 45064U 20006W   25358.85826853  .00002538  00000+0  18926-3 0  9991,2 45064  53.0548 242.5525 0001463  98.8122 261.3032 15.06387735325467
STARLINK-1167,45071,53.0526,0.0001879,15.06399048,545.9132021404203,548.5157492249818,1 45071U 20006AD  25358.68502897  .00000227  00000+0  34141-4 0  9990,2 45071  53.0526 243.3269 0001879  92.4930 267.6274 15.06399048325437
STARLINK-1168,45072,53.0533,0.0001448,15.06399112,546.211488666444,548.217070396995,1 45072U 20006AE  25358.82141199  .00002593  00000+0  19292-3 0  9998,2 45072  53.0533 242.7144 0001448  82.0204 278.0949 15.06399112325451
STARLINK-1172,45074,53.0528,0.0001172,15.06405115,546.38423223065,548.0075302580135,1 45074U 20006AG  25358.69976831 -.00001072  00000+0 -53085-4 0  9996,2 45074  53.0528 243.2634 0001172  89.5957 270.5166 15.06405115325435
STARLINK-1153,45080,53.0547,0.000146,15.06395757,546.2134593646233,548.2356649407711,1 45080U 20006AN  25358.67765330  .00001815  00000+0  14076-3 0  9990,2 45080  53.0547 243.3603 0001460  88.9054 271.2102 15.06395757325439
STARLINK-1151,45081,53.0541,0.0001647,15.4318426,435.59608862009736,437.8409020202562,1 45081U 20006AP  25358.91670139  .00115626  00000+0  25378-2 0  9992,2 45081  53.0541 239.7440 0001647  94.3712 110.5169 15.43184260  5788
STARLINK-1185,45087,53.0532,0.0001971,15.06397477,545.8543028558188,548.584278305565,1 45087U 20006AV  25358.83799484  .00001337  00000+0  10868-3 0  9996,2 45087  53.0532 222.6411 0001971  88.1424 271.9791 15.06397477325743
STARLINK-1183,45088,53.0555,0.0001689,15.06392403,546.0651464428911,548.404537051033,1 45088U 20006AW  25358.66107076  .00000505  00000+0  52800-4 0  9997,2 45088  53.0555 223.4370 0001689 111.3728 248.7442 15.06392403325710
STARLINK-1142,45093,53.0148,0.0008324,16.17519113,220.79880181364024,231.79386242495275,1 45093U 20006BB  25358.90574573  .02484641  11378-1  18493-2 0  9999,2 45093  53.0148 127.2282 0008324 304.3321  55.6927 16.17519113327080
